satname,norad_id,inclination_deg,eccentricity,mean_motion_rev_per_day,perigee_km,apogee_km,l1,l2
STARLINK-1460,45676,53.1592,0.00015,15.3019098,474.21399479550746,476.27000849600245,1 45676U 20035V   26078.83335647  .00025603  00000+0  87382-3 0  9996,2 45676  53.1592  17.8310 0001500 105.9530 143.2981 15.30190980  5788
STARLINK-1392,45677,53.1555,0.0001727,15.29370892,476.50775315233113,478.87575640423165,1 45677U 20035W   26078.26348095  .00006910  00000+0  25145-3 0  9994,2 45677  53.1555  20.3473 0001727  90.2615 269.8584 15.29370892320221
STARLINK-1394,45679,53.0507,0.000368,15.51583009,409.6048162811385,414.6024333810137,1 45679U 20035Y   26078.02627890  .00080351  00000+0  13264-2 0  9992,2 45679  53.0507 351.7117 0003680 161.4823 198.6321 15.51583009320608
STARLINK-1402,45685,53.0478,0.0001806,15.46493468,425.7643373475403,428.22235042775173,1 45685U 20035AE  26078.87050701  .00062548  00000+0  12390-2 0  9990,2 45685  53.0478 334.8514 0001806 217.8075 142.2805 15.46493468320928
STARLINK-1404,45686,53.1599,0.0002051,15.31038881,471.30635667170554,474.1165747123323,1 45686U 20035AF  26078.75226124  .00039621  00000+0  13083-2 0  9998,2 45686  53.1599   2.9382 0002051 102.3770 257.7460 15.31038881320515
STARLINK-1413,45689,53.1626,0.0001308,15.30207432,474.29646334860536,476.08929444492514,1 45689U 20035AJ  26078.10750895  .00003652  00000+0  13533-3 0  9993,2 45689  53.1626   5.8331 0001308  82.9617 277.1533 15.30207432320338
STARLINK-1417,45693,53.0535,0.0001784,15.13147448,525.376680121728,527.8402933113885,1 45693U 20035AN  26077.97887933  .00026087  00000+0  14661-2 0  9995,2 45693  53.0535  12.1865 0001784 254.8771 105.2024 15.13147448320307
STARLINK-1420,45695,53.0532,0.0004703,15.55732622,396.8360543810004,403.21159245150557,1 45695U 20035AQ  26078.70612326  .00136784  00000+0  19236-2 0  9990,2 45695  53.0532 334.0147 0004703 151.8943 208.2322 15.55732622320918
STARLINK-1422,45696,53.1626,0.0001132,15.30190091,474.46885326340725,476.02045887034,1 45696U 20035AR  26078.11488596 -.00002492  00000+0 -72073-4 0  9996,2 45696  53.1626   5.8043 0001132  95.9131 264.1999 15.30190091320419
STARLINK-1351,45697,53.0534,0.0004393,15.54198424,401.5041079848288,407.4633185435032,1 45697U 20035AS  26077.98402503  .00080517  00000+0  12093-2 0  9991,2 45697  53.0534 336.8023 0004393 169.8121 190.2979 15.54198424320819
STARLINK-1398,45699,53.0301,0.0006853,16.05716462,254.07210848964587,263.1684480152189,1 45699U 20035AU  26078.94511810  .00477773  11883-3  64972-3 0  9995,2 45699  53.0301 246.1421 0006853 291.9478  68.0825 16.05716462322160
STARLINK-1400,45700,53.0503,0.0007736,15.52327267,404.6818285853551,415.184330612512,1 45700U 20035AV  26078.86599668  .00072975  00000+0  11737-2 0  9996,2 45700  53.0503 334.0203 0007736 136.2931 223.8692 15.52327267320925
STARLINK-1403,45701,53.1559,0.0001741,15.29355602,476.5438418581616,478.9310573415114,1 45701U 20035AW  26078.72871443  .00002173  00000+0  87638-4 0  9994,2 45701  53.1559 349.9438 0001741  85.3013 274.8186 15.29355602320683
STARLINK-1407,45703,53.0324,0.0007925,15.62298415,375.6630410809921,386.3763044072912,1 45703U 20035AY  26078.74954803  .00099933  00000+0  11018-2 0  9997,2 45703  53.0324 266.6596 0007925 143.9295 216.2254 15.62298415321869
STARLINK-1411,45706,53.0428,0.0004113,15.64085613,373.0918811892652,378.6477271863896,1 45706U 20035BB  26078.85914890  .00082569  00000+0  85250-3 0  9991,2 45706  53.0428 291.6584 0004113 178.0303 182.0728 15.64085613321511
STARLINK-1423,45710,53.0508,0.0007614,15.54823797,397.501975565614,407.82778066560786,1 45710U 20035BF  26078.68945761  .00068438  00000+0  10065-2 0  9998,2 45710  53.0508 333.7486 0007614 150.4192 209.7250 15.54823797320904
STARLINK-1433,45711,53.0502,0.000735,15.56842405,391.82268741810367,401.78184814173983,1 45711U 20035BG  26078.82987936  .00068003  00000+0  92855-3 0  9991,2 45711  53.0502 331.9666 0007350 143.5462 216.6051 15.56842405320948
STARLINK-1434,45712,53.054,0.0005172,15.27635245,479.3351577261974,486.4321975151279,1 45712U 20035BH  26077.92661290  .00030006  00000+0  11041-2 0  9993,2 45712  53.0540 337.2175 0005172 126.3476 233.8000 15.27635245320809
STARLINK-1465,45731,53.0517,0.0004635,15.51580843,408.96266480154463,415.2572237188733,1 45731U 20038B   26077.98946389  .00060302  00000+0  99980-3 0  9999,2 45731  53.0517 178.4843 0004635 320.9185  39.1488 15.51580843317828
STARLINK-1471,45735,53.0456,0.0001154,15.49383259,417.74477080138695,419.3134413386688,1 45735U 20038F   26078.32339925  .00018395  00000+0  33712-3 0  9990,2 45735  53.0456  95.8501 0001154 345.2739  14.8234 15.49383259319027
STARLINK-1480,45741,53.0555,0.0005515,15.48246265,418.106039004374,425.6064315428821,1 45741U 20038M   26078.28614590  .00021516  00000+0  40851-3 0  9997,2 45741  53.0555 171.3447 0005515 215.6323 144.4317 15.48246265317964
STARLINK-1500,45744,53.0374,0.0002105,15.3530608,458.572073778927,461.45093429912686,1 45744U 20038Q   26077.92272897  .00017644  00000+0  51703-3 0  9995,2 45744  53.0374 149.4221 0002105 319.5285  40.5559 15.35306080318238
STARLINK-1504,45746,53.0211,6.71e-05,15.537748,405.2612780846439,406.1716712209436,1 45746U 20038S   26078.33669374  .00023502  00000+0  36628-3 0  9992,2 45746  53.0211  95.6214 0000671  22.3456 337.7583 15.53774800319013
STARLINK-1506,45747,53.0768,0.0002421,15.26443561,484.7921967776974,488.11603179523445,1 45747U 20038T   26078.54758964  .00006748  00000+0  26841-3 0  9999,2 45747  53.0768 156.7566 0002421 292.2426  67.8315 15.26443561318199
STARLINK-1464,45751,53.0512,0.0003281,15.44993098,429.1641438299912,433.63256092822303,1 45751U 20038X   26078.59631144  .00027212  00000+0  57500-3 0  9994,2 45751  53.0512 157.4741 0003281 325.7564  34.3229 15.44993098318181
STARLINK-1477,45754,53.0508,0.0002124,15.1501026,519.4820462012522,522.4127772593538,1 45754U 20038AA  26078.26665997  .00020670  00000+0  11067-2 0  9992,2 45754  53.0508 169.4120 0002124  27.9361 332.1745 15.15010260317982
STARLINK-1478,45755,53.0513,0.0003814,15.5685639,394.1777492027577,399.3456419277354,1 45755U 20038AB  26077.62547964  .00080034  00000+0  10903-2 0  9993,2 45755  53.0513 154.6222 0003814 310.3012  49.7666 15.56856390318124
STARLINK-1484,45756,52.9927,0.0004513,16.22781649,209.03607852780533,214.9843454013244,1 45756U 20038AC  26078.87671339  .01656541  11886-4  66810-3 0  9997,2 45756  52.9927   2.9491 0004513 206.6127 153.4680 16.22781649320340
STARLINK-1493,45759,53.0518,0.0003644,15.51969537,408.5021897826764,413.4500954410132,1 45759U 20038AF  26078.69434592  .00061725  00000+0  10090-2 0  9990,2 45759  53.0518 156.4125 0003644  36.8213 323.3045 15.51969537318191
STARLINK-1494,45760,53.047,0.0006668,15.75618095,338.3913258974144,347.35446469378076,1 45760U 20038AG  26078.27091618  .00075473  00000+0  48346-3 0  9995,2 45760  53.0470 103.9125 0006668  35.5414 324.6048 15.75618095318907
STARLINK-1502,45764,53.0499,0.0004651,15.48608544,417.63349065617695,423.9578578297569,1 45764U 20038AL  26077.53205405  .00064913  00000+0  11940-2 0  9994,2 45764  53.0499 163.7480 0004651  21.3588 338.7613 15.48608544318008
STARLINK-1470,45772,53.0451,0.0002439,15.28863642,477.53559320087606,480.88060614049573,1 45772U 20038AU  26078.54770814  .00029704  00000+0  10532-2 0  9991,2 45772  53.0451 128.5287 0002439  31.2824 328.8319 15.28863642318580
STARLINK-1482,45773,53.1589,0.0001524,15.30717088,472.6273568735487,474.71578812644657,1 45773U 20038AV  26077.88928345  .00034662  00000+0  11583-2 0  9998,2 45773  53.1589 148.2765 0001524  62.0408 298.0747 15.30717088318250
STARLINK-1496,45780,53.05,0.0002129,15.49851873,415.71228955479,418.6057265950285,1 45780U 20038BC  26078.31932839  .00056858  00000+0  10035-2 0  9990,2 45780  53.0500 131.6782 0002129 276.5560  83.5206 15.49851873318504
STARLINK-1513,45786,53.1598,0.0001366,15.30190997,474.3057793216303,476.1781224510123,1 45786U 20038BJ  26077.89988877  .00002704  00000+0  10341-3 0  9993,2 45786  53.1598 148.3711 0001366  75.7429 284.3723 15.30190997318250
STARLINK-1522,46027,53.0634,0.0002262,15.09492954,536.1839160212976,539.3126625261639,1 46027U 20055A   26078.28355041  .00021263  00000+0  13261-2 0  9990,2 46027  53.0634  83.2278 0002262  76.4185 283.7058 15.09492954310336
STARLINK-1523,46028,53.1551,0.0001619,15.29331531,476.69941063956685,478.9193660801184,1 46028U 20055B   26078.83335647  .00055705  00000+0  19297-2 0  9995,2 46028  53.1551  79.5355 0001619  85.2980 255.1188 15.29331531  5812
STARLINK-1526,46029,53.1552,0.0001433,15.29317579,476.8686231763886,478.83354936191336,1 46029U 20055C   26078.83335647  .00054834  00000+0  19008-2 0  9998,2 46029  53.1552  79.5002 0001433  92.9417 307.1020 15.29317579  5760
STARLINK-1555,46032,53.1557,0.0001446,15.29319969,476.8525684609367,478.8353181497414,1 46032U 20055F   26078.83335647  .00047326  00000+0  16438-2 0  9994,2 46032  53.1557  79.5735 0001446  92.1580 347.0070 15.29319969  5762
STARLINK-1556,46033,53.156,0.0001906,15.29333529,476.4966748076704,479.11015929465157,1 46033U 20055G   26078.83335647  .00047115  00000+0  16358-2 0  9992,2 46033  53.1560  79.4560 0001906  73.7358 169.6146 15.29333529  5525
STARLINK-1557,46034,53.1554,0.0001912,15.29330468,476.50170773575064,479.12342284951865,1 46034U 20055H   26078.83335647  .00042608  00000+0  14815-2 0  9991,2 46034  53.1554  79.3571 0001912  78.1120 199.6458 15.29330468  5723
STARLINK-1558,46035,53.1563,0.0001224,15.29330806,476.9723870260732,478.6507232323693,1 46035U 20055J   26078.83335647  .00043313  00000+0  15057-2 0  9995,2 46035  53.1563  79.5410 0001224  91.0012  45.8049 15.29330806  5812
STARLINK-1560,46036,53.1552,0.0001949,15.29369583,476.3594649644383,479.03186853793795,1 46036U 20055K   26078.25691561  .00002066  00000+0  83897-4 0  9991,2 46036  53.1552  82.0714 0001949  80.9644 279.1577 15.29369583310360
